STARLINK-31928          
1 59897U 24100N   26068.55943657 -.00002460  00000+0 -79884-4 0  9994
2 59897  43.0044 126.4220 0001814 274.1380  85.9265 15.27576798101038
TEVEL2-8                
1 63239U 25052AF  26068.66815442  .00019130  00000+0  69304-3 0  9993
2 63239  97.4055 324.2923 0008031 124.9191 235.2804 15.28392908 54807
