[{"OBJECT_NAME":"STARLINK-31928","OBJECT_ID":"2024-100N","EPOCH":"2026-03-09T13:25:35.319648","MEAN_MOTION":15.27576798,"ECCENTRICITY":0.0001814,"INCLINATION":43.0044,"RA_OF_ASC_NODE":126.422,"ARG_OF_PERICENTER":274.138,"MEAN_ANOMALY":85.9265,"EPHEMERIS_TYPE":0,"CLASSIFICATION_TYPE":"U","NORAD_CAT_ID":59897,"ELEMENT_SET_NO":999,"REV_AT_EPOCH":10103,"BSTAR":-7.9884e-5,"MEAN_MOTION_DOT":-2.46e-5,"MEAN_MOTION_DDOT":0},{"OBJECT_NAME":"TEVEL2-8","OBJECT_ID":"2025-052AF","EPOCH":"2026-03-09T16:02:08.542752","MEAN_MOTION":15.28392908,"ECCENTRICITY":0.0008031,"INCLINATION":97.4055,"RA_OF_ASC_NODE":324.2923,"ARG_OF_PERICENTER":124.9191,"MEAN_ANOMALY":235.2804,"EPHEMERIS_TYPE":0,"CLASSIFICATION_TYPE":"U","NORAD_CAT_ID":63239,"ELEMENT_SET_NO":999,"REV_AT_EPOCH":5480,"BSTAR":0.00069303947,"MEAN_MOTION_DOT":0.0001913,"MEAN_MOTION_DDOT":0}]
